"spkid","full_name","name","diameter","e","a","q","i","om","w","ma","albedo","n","epoch"
3836718,"       (2018 XH)",,,0.2997,1.417,0.992,1.23,281.65,216.53,140.02,,0.5845,2460600.5
3836719,"       (2018 XJ)",,,0.5919,2.293,0.936,3.90,74.22,320.73,8.24,,0.2839,2458457.5
3836720,"       (2018 XN)",,,0.3295,1.393,0.934,1.07,82.09,58.15,166.15,,0.5992,2460600.5
3836721,"       (2018 XO)",,,0.2578,1.347,1.000,24.65,249.27,120.83,38.03,,0.6306,2458457.5
3836727,"       (2018 XR)",,,0.6656,2.155,0.721,20.53,78.22,114.56,280.60,,0.3115,2460600.5
3836733,"       (2018 XS)",,,0.5358,2.049,0.951,3.94,337.94,40.81,16.28,,0.3362,2460600.5
3836734,"       (2018 XT)",,,0.6251,1.856,0.696,7.02,249.50,98.66,20.14,,0.3897,2458457.5
3836732,"       (2018 XU)",,,0.7487,2.418,0.608,2.74,222.72,112.22,15.03,,0.2622,2458457.5
3836736,"       (2018 XV)",,,0.5959,2.187,0.884,22.51,107.72,64.16,268.03,,0.3047,2460600.5
3836735,"       (2018 XW)",,,0.5794,2.406,1.012,7.24,80.16,359.64,204.78,,0.2641,2460600.5
3836737,"       (2018 XB1)",,,0.5852,2.443,1.013,15.86,262.65,152.65,197.39,,0.2582,2460600.5
3836744,"       (2018 XG1)",,,0.7579,2.545,0.616,8.27,47.65,120.66,347.11,,0.2427,2458461.5
3836747,"       (2018 XH1)",,,0.4461,1.783,0.988,4.79,67.78,34.29,351.19,,0.414,2458462.5
3836745,"       (2018 XJ1)",,,0.4307,1.753,0.998,5.49,84.00,359.93,185.45,,0.4246,2460600.5
3836746,"       (2018 XK1)",,,0.3307,1.523,1.019,27.95,260.63,150.67,13.18,,0.5245,2458462.5
3836748,"       (2018 XL1)",,,0.4537,1.809,0.988,2.53,254.41,192.42,142.59,,0.405,2460600.5
3836755,"       (2018 XZ1)",,,0.3360,1.551,1.030,51.20,59.48,25.58,358.94,,0.5102,2460600.5
3836752,"       (2018 XA2)",,,0.3437,1.562,1.025,8.27,261.36,166.61,3.63,,0.5051,2458461.5
3836754,"       (2018 XB2)",,,0.2819,1.537,1.104,19.28,92.58,344.24,24.51,,0.5173,2460600.5
3836757,"       (2018 XC2)",,,0.4520,1.803,0.988,13.45,73.46,76.32,121.91,,0.407,2460600.5
3836753,"       (2018 XD2)",,,0.3595,2.022,1.295,5.47,356.94,98.50,6.85,,0.3428,2460600.5
3836759,"       (2018 XE2)",,,0.7318,2.175,0.583,6.44,251.07,277.97,345.18,,0.3072,2458463.5
3836756,"       (2018 XF2)",,,0.6177,2.498,0.955,0.97,254.50,151.98,179.60,,0.2497,2460600.5
3836758,"       (2018 XG2)",,,0.0558,1.028,0.971,10.87,72.36,308.92,271.97,,0.9455,2460600.5
3836845,"       (2018 XH2)",,,0.3596,1.61,1.031,2.80,41.52,55.21,303.97,,0.4824,2460600.5
3836846,"       (2018 XJ2)",,,0.3810,1.483,0.918,10.66,62.60,80.22,332.55,,0.5458,2458464.5
3836848,"       (2018 XK2)",,,0.6004,2.651,1.059,3.75,55.48,26.50,127.77,,0.2284,2460600.5
3836847,"       (2018 XL2)",,,0.3352,1.592,1.058,19.15,69.56,345.73,9.15,,0.4909,2458462.5
3836849,"       (2018 XM2)",,,0.2411,1.249,0.948,22.48,257.38,228.61,39.11,,0.7063,2460600.5
3836851,"       (2018 XN2)",,,0.4079,1.621,0.960,3.15,56.92,329.73,20.42,,0.4776,2458463.5
3836850,"       (2018 XO2)",,,0.6712,2.328,0.765,14.99,69.56,281.04,16.77,,0.2775,2458463.5
3836852,"       (2018 XP2)",,,0.7593,1.811,0.436,0.54,66.28,263.17,19.13,,0.4043,2458463.5
3836857,"       (2018 XQ2)",,,0.1780,0.8563,0.704,0.08,113.29,146.57,313.38,,1.244,2460600.5
3836853,"       (2018 XR2)",,,0.1835,1.138,0.929,2.29,261.50,111.91,341.88,,0.8119,2460600.5
3836856,"       (2018 XS2)",,,0.3117,1.463,1.007,8.50,76.81,333.83,14.31,,0.557,2458463.5
3836854,"       (2018 XT2)",,,0.3567,1.659,1.067,7.17,79.90,58.08,237.31,,0.4611,2460600.5
3836860,"       (2018 XU2)",,,0.4749,2.407,1.264,3.35,257.20,241.06,184.28,,0.2639,2460600.5
3836855,"       (2018 XV2)",,,0.1469,1.18,1.006,11.42,258.74,158.50,16.59,,0.7692,2458463.5
3836859,"       (2018 XW2)",,,0.3018,0.9971,0.696,19.74,78.13,249.77,30.96,,0.99,2460600.5
3836858,"       (2018 XX2)",,,0.5555,2.01,0.893,7.35,76.98,315.84,31.26,,0.3459,2460600.5
3836861,"       (2018 XY2)",,,0.3793,1.785,1.108,4.44,333.22,158.21,142.93,,0.4134,2460600.5
3836862,"       (2018 XZ2)",,,0.6273,2.765,1.031,20.44,82.87,27.80,92.40,,0.2144,2460600.5
3836863,"       (2018 XF3)",,,0.2569,1.706,1.268,29.72,274.94,152.89,234.28,,0.4423,2460600.5
3836864,"       (2018 XG3)",,,0.5994,2.481,0.994,2.41,266.44,145.38,5.38,,0.2523,2458462.5
3836878,"       (2018 XP3)",,,0.2001,1.095,0.876,16.99,72.56,245.72,144.26,,0.8601,2460600.5
3836885,"       (2018 XQ3)",,,0.4823,2.475,1.281,63.22,76.02,4.98,358.78,,0.2532,2458463.5
3836880,"       (2018 XR3)",,,0.6033,1.665,0.660,14.11,259.03,64.54,303.17,,0.4589,2460600.5
3836879,"       (2018 XT3)",,,0.2903,1.393,0.988,6.84,68.86,27.56,350.03,,0.5996,2458465.5
3836881,"       (2018 XU3)",,,0.4015,1.586,0.949,13.22,75.37,44.96,316.48,,0.4937,2460600.5
3836882,"       (2018 XV3)",,,0.2980,1.401,0.983,9.44,67.45,343.17,203.18,,0.5946,2460600.5
3836884,"       (2018 XW3)",,,0.4552,1.444,0.787,2.55,255.70,110.67,162.37,,0.5681,2460600.5
3836883,"       (2018 XX3)",,,0.1251,1.032,0.903,4.26,260.33,101.57,272.18,,0.9401,2460600.5
3836888,"       (2018 XY3)",,,0.6197,2.102,0.799,20.29,80.69,108.35,313.34,,0.3234,2460600.5
3836887,"       (2018 XZ3)",,,0.5131,2.353,1.146,7.18,14.19,341.17,256.72,,0.2731,2460600.5
3836886,"       (2018 XA4)",,,0.4032,1.12,0.668,2.29,81.40,260.97,26.84,,0.8315,2460600.5
3836889,"       (2018 XB4)",,,0.1994,1.071,0.858,8.73,92.02,92.36,13.62,,0.8888,2460600.5
3836892,"       (2018 XC4)",,,0.3103,1.268,0.874,2.17,95.07,52.41,356.63,,0.6904,2460600.5
3836891,"       (2018 XD4)",,,0.5813,1.693,0.709,3.90,236.91,118.28,24.73,,0.4475,2458466.5
3836890,"       (2018 XE4)",,,0.4470,1.593,0.881,2.95,263.97,237.87,304.61,,0.4903,2460600.5
3836893,"       (2018 XF4)",,,0.2297,1.266,0.975,25.84,81.62,327.65,56.85,,0.692,2460600.5
3836894,"       (2018 XG4)",,,0.4959,1.957,0.987,6.54,261.08,171.46,50.52,,0.36,2460600.5
3836901,"       (2018 XN4)",,,0.5939,2.653,1.077,7.62,259.12,181.41,359.85,,0.2281,2458464.5
3836902,"       (2018 XO4)",,,0.2445,1.278,0.966,3.14,297.87,173.44,356.07,,0.6821,2460600.5
3836903,"       (2018 XP4)",,,0.7500,2.388,0.597,1.75,142.17,200.90,14.87,,0.267,2458466.5
3836904,"       (2018 XQ4)",,,0.4892,2.235,1.141,4.87,145.04,14.61,252.13,,0.2951,2460600.5
3836905,"       (2018 XR4)",,,0.3573,1.144,0.735,10.21,84.42,88.46,227.55,,0.8053,2460600.5
3836906,"       (2018 XS4)",,,0.5943,2.452,0.995,6.38,266.03,173.77,188.49,,0.2566,2460600.5
3836907,"       (2018 XT4)",,,0.3479,1.541,1.005,3.66,94.42,358.31,356.16,,0.5151,2458467.5
3836910,"       (2018 XW4)",,,0.6499,2.24,0.784,4.54,88.52,271.44,16.70,,0.2939,2458467.5
3836909,"       (2018 XX4)",,,0.4731,1.874,0.987,1.06,89.09,312.90,12.87,,0.3842,2458466.5
3836908,"       (2018 XY4)",,,0.4436,1.664,0.926,2.71,112.65,273.99,20.19,,0.4593,2458466.5
3836915,"       (2018 XZ4)",,,0.4737,1.795,0.945,7.14,84.75,319.99,166.46,,0.4099,2460600.5
3836911,"       (2018 XA5)",,,0.3061,1.091,0.757,3.34,4.18,196.05,324.05,,0.8648,2460600.5
3836914,"       (2018 XB5)",,,0.3105,1.413,0.974,25.88,263.07,151.41,186.68,,0.587,2460600.5
3836912,"       (2018 XC5)",,,0.3129,1.55,1.065,20.55,264.26,196.13,352.03,,0.5106,2458466.5
3836913,"       (2018 XD5)",,,0.2936,0.8194,0.579,4.52,271.76,356.42,128.49,,1.329,2460600.5
3836923,"       (2018 XE5)",,,0.6383,2.495,0.902,34.16,353.31,167.27,135.26,,0.2501,2460600.5
3836919,"       (2018 XF5)",,,0.2133,1.393,1.096,7.42,226.55,279.05,153.23,,0.5994,2460600.5
3836920,"       (2018 XG5)",,,0.6234,2.433,0.916,12.92,215.49,320.63,165.80,,0.2597,2460600.5
3836921,"       (2018 XH5)",,,0.1847,1.333,1.087,10.91,248.37,173.85,299.41,,0.6404,2460600.5
3836922,"       (2018 XK5)",,,0.4817,1.99,1.032,13.89,128.43,269.65,43.37,,0.351,2460600.5
3836925,"       (2018 XL5)",,,0.6193,2.797,1.065,12.36,277.80,147.50,97.01,,0.2107,2460600.5
3836927,"       (2018 XM5)",,,0.3027,0.8357,0.583,10.17,92.75,152.73,79.98,,1.29,2460600.5
3836924,"       (2018 XN5)",,,0.4499,1.789,0.984,3.49,278.42,182.53,151.71,,0.4119,2460600.5
3836936,"       (2018 XV5)",,,0.6335,2.585,0.947,11.23,154.89,161.18,192.21,,0.2371,2460600.5
3836937,"       (2018 XW5)",,,0.5400,2.305,1.060,5.33,288.24,60.97,288.74,,0.2817,2460600.5
3836935,"       (2018 XX5)",,,0.2396,1.657,1.260,33.39,267.93,111.45,300.56,,0.4622,2460600.5
3836938,"       (2018 XY5)",,,0.3571,1.555,1.000,12.65,262.00,146.78,19.27,,0.5084,2460600.5
3836958,"       (2018 XT6)",,,0.4030,1.765,1.054,7.62,279.02,91.52,218.16,,0.4204,2460600.5
3836961,"       (2018 XU6)",,,0.3569,1.777,1.143,6.01,323.29,192.17,137.99,,0.416,2460600.5
3837516,"       (2018 XB20)",,,0.5946,1.984,0.804,6.33,196.75,325.91,6.39,,0.3527,2460600.5
3837517,"       (2018 XC20)",,,0.5026,2.178,1.083,8.04,184.64,160.57,30.25,,0.3067,2458465.5
3837519,"       (2018 XE20)",,,0.4218,2.168,1.253,23.69,118.35,283.03,321.26,,0.3088,2460600.5
3836939,"       (2018 YA)",,,0.1329,1.225,1.062,9.34,264.74,141.60,143.64,,0.7271,2460600.5
3836940,"       (2018 YB)",,,0.5418,2.035,0.932,2.12,110.40,289.29,14.40,,0.3395,2458471.5
3836941,"       (2018 YG)",,,0.4377,0.7703,0.433,29.44,266.70,342.57,88.87,,1.458,2460600.5
3836942,"       (2018 YH)",,,0.2639,1.119,0.824,11.92,320.48,245.74,255.42,,0.8322,2460600.5
3836943,"       (2018 YJ)",,,0.5589,2.312,1.020,18.09,25.96,153.67,219.72,,0.2804,2460600.5
3836947,"       (2018 YL)",,,0.6105,2.834,1.104,12.16,78.84,43.93,75.87,,0.2066,2460600.5
3836948,"       (2018 YM)",,,0.6408,1.308,0.470,17.69,85.93,248.47,34.66,,0.659,2458470.5
3836944,"       (2018 YN)",,,0.5163,1.685,0.815,8.54,50.57,315.50,270.38,,0.4506,2460600.5
3836945,"       (2018 YO)",,,0.4865,1.872,0.961,3.90,73.17,342.97,9.55,,0.3848,2458470.5
3836959,"       (2018 YT)",,,0.3869,1.794,1.100,26.54,279.71,99.91,196.90,,0.4101,2460600.5
3836962,"       (2018 YU)",,,0.4761,1.762,0.923,11.20,223.16,339.76,134.40,,0.4212,2460600.5
3836963,"       (2018 YV)",,,0.5532,2.528,1.130,14.49,293.99,135.97,167.95,,0.2452,2460600.5
3836964,"       (2018 YW)",,,0.7447,3.446,0.880,52.63,124.55,67.58,317.92,,0.1541,2460600.5
3836971,"       (2018 YY)",,,0.1985,1.206,0.966,33.47,267.75,132.32,36.74,,0.7443,2458469.5
